CAS500-2 RIDESHARE OBJE*
1 69016U 26100AN  26129.64838450  .00004666  00000+0  21248-3 0  9990
2 69016  97.4065  28.1686 0008017 172.0018 188.1347 15.21148420   955
