{
  "norad_id": 69016,
  "name": "CAS500-2 RIDESHARE OBJECT AN",
  "history": [
    {
      "epoch": "2026-05-09T15:33:40.419936Z",
      "apogee_km": 507.89217902944256,
      "perigee_km": 496.85858937013927,
      "latitude_deg": 5.334391194869114e-07,
      "longitude_deg": -72.71275966574856,
      "height_km": 510.92984935688935,
      "semi_major_axis_km": 6880.51238419979,
      "eccentricity": 0.0008018,
      "inclination_deg": 97.4065,
      "raan_deg": 28.1686,
      "arg_perigee_deg": 172.0018,
      "mean_anomaly_deg": 188.1347,
      "mean_motion_rev_day": 15.2114842
    }
  ]
}